CZ-2C R/B               
1 54039U 22132E   26042.98065270  .00042411  00000+0  52821-3 0  9994
2 54039  97.2963  45.5661 0018779 177.2184 182.9180 15.59600134186365
GSLV R/B                
1 54149U 22138AN  26042.84588646  .00004261  00000+0  37074-3 0  9998
2 54149  87.3866 175.0098 0019523 242.9346 116.9893 14.96576818180060
XRISM                   
1 57800U 23137A   26042.48695820  .00006851  00000+0  39238-3 0  9999
2 57800  31.0021  93.0952 0008016 137.4103 222.7159 15.11175071133825
ACS3                    
1 59588U 24077B   26042.85367320  .00020017  00000+0  16500-1 0  9995
2 59588  97.2201 349.7745 0046118 155.5224 204.8143 13.88530533 90618
SZ-21 MODULE            
1 66515U 25246C   26042.25056372  .00038901  00000+0  36325-3 0  9998
2 66515  41.4767   5.8583 0002588 291.1599  68.8966 15.66534609 13925
