CCSDS_OMM_VERS = 2.0
CREATION_DATE  = 
ORIGINATOR     = 

OBJECT_NAME    = CZ-2C R/B
OBJECT_ID      = 2022-132E
CENTER_NAME    = EARTH
REF_FRAME      = TEME
TIME_SYSTEM    = UTC
MEAN_ELEMENT_THEORY = SGP/SGP4

EPOCH          = 2026-02-11T23:32:08.393280
MEAN_MOTION    = 15.59600134
ECCENTRICITY   = .00187797
INCLINATION    = 97.2963
RA_OF_ASC_NODE = 45.5661
ARG_OF_PERICENTER = 177.2184
MEAN_ANOMALY   = 182.9180

EPHEMERIS_TYPE = 0
CLASSIFICATION_TYPE = U
NORAD_CAT_ID   = 54039
ELEMENT_SET_NO = 999
REV_AT_EPOCH   = 18636
BSTAR          = .52820764E-3
MEAN_MOTION_DOT = .42411E-3
MEAN_MOTION_DDOT = 0

CCSDS_OMM_VERS = 2.0
CREATION_DATE  = 
ORIGINATOR     = 

OBJECT_NAME    = GSLV R/B
OBJECT_ID      = 2022-138AN
CENTER_NAME    = EARTH
REF_FRAME      = TEME
TIME_SYSTEM    = UTC
MEAN_ELEMENT_THEORY = SGP/SGP4

EPOCH          = 2026-02-11T20:18:04.590144
MEAN_MOTION    = 14.96576818
ECCENTRICITY   = .00195239
INCLINATION    = 87.3866
RA_OF_ASC_NODE = 175.0098
ARG_OF_PERICENTER = 242.9346
MEAN_ANOMALY   = 116.9893

EPHEMERIS_TYPE = 0
CLASSIFICATION_TYPE = U
NORAD_CAT_ID   = 54149
ELEMENT_SET_NO = 999
REV_AT_EPOCH   = 18006
BSTAR          = .37073664E-3
MEAN_MOTION_DOT = .4261E-4
MEAN_MOTION_DDOT = 0

CCSDS_OMM_VERS = 2.0
CREATION_DATE  = 
ORIGINATOR     = 

OBJECT_NAME    = XRISM
OBJECT_ID      = 2023-137A
CENTER_NAME    = EARTH
REF_FRAME      = TEME
TIME_SYSTEM    = UTC
MEAN_ELEMENT_THEORY = SGP/SGP4

EPOCH          = 2026-02-11T11:41:13.188480
MEAN_MOTION    = 15.11175071
ECCENTRICITY   = .00080162
INCLINATION    = 31.0021
RA_OF_ASC_NODE = 93.0952
ARG_OF_PERICENTER = 137.4103
MEAN_ANOMALY   = 222.7159

EPHEMERIS_TYPE = 0
CLASSIFICATION_TYPE = U
NORAD_CAT_ID   = 57800
ELEMENT_SET_NO = 999
REV_AT_EPOCH   = 13382
BSTAR          = .39237508E-3
MEAN_MOTION_DOT = .6851E-4
MEAN_MOTION_DDOT = 0

CCSDS_OMM_VERS = 2.0
CREATION_DATE  = 
ORIGINATOR     = 

OBJECT_NAME    = ACS3
OBJECT_ID      = 2024-077B
CENTER_NAME    = EARTH
REF_FRAME      = TEME
TIME_SYSTEM    = UTC
MEAN_ELEMENT_THEORY = SGP/SGP4

EPOCH          = 2026-02-11T20:29:17.364480
MEAN_MOTION    = 13.88530533
ECCENTRICITY   = .0046118
INCLINATION    = 97.2201
RA_OF_ASC_NODE = 349.7745
ARG_OF_PERICENTER = 155.5224
MEAN_ANOMALY   = 204.8143

EPHEMERIS_TYPE = 0
CLASSIFICATION_TYPE = U
NORAD_CAT_ID   = 59588
ELEMENT_SET_NO = 999
REV_AT_EPOCH   = 9061
BSTAR          = .16500185E-1
MEAN_MOTION_DOT = .20017E-3
MEAN_MOTION_DDOT = 0

CCSDS_OMM_VERS = 2.0
CREATION_DATE  = 
ORIGINATOR     = 

OBJECT_NAME    = SZ-21 MODULE
OBJECT_ID      = 2025-246C
CENTER_NAME    = EARTH
REF_FRAME      = TEME
TIME_SYSTEM    = UTC
MEAN_ELEMENT_THEORY = SGP/SGP4

EPOCH          = 2026-02-11T06:00:48.705408
MEAN_MOTION    = 15.66534609
ECCENTRICITY   = .00025886
INCLINATION    = 41.4767
RA_OF_ASC_NODE = 5.8583
ARG_OF_PERICENTER = 291.1599
MEAN_ANOMALY   = 68.8966

EPHEMERIS_TYPE = 0
CLASSIFICATION_TYPE = U
NORAD_CAT_ID   = 66515
ELEMENT_SET_NO = 999
REV_AT_EPOCH   = 1392
BSTAR          = .36324923E-3
MEAN_MOTION_DOT = .38901E-3
MEAN_MOTION_DDOT = 0

